KUIPER-00218            
1 67780U 26030S   26070.78853367  .00025103  00000+0  72910-3 0  9993
2 67780  51.8826 209.1418 0007005  56.5678 303.5977 15.35311970  5413
KUIPER-00220            
1 67781U 26030T   26070.73127082  .00026229  00000+0  77111-3 0  9995
2 67781  51.8795 209.4978 0008719  62.0532 298.1335 15.34893065  5402
KUIPER-00222            
1 67782U 26030U   26070.76352825  .00035318  00000+0  11185-2 0  9991
2 67782  51.8808 209.7029 0016746  73.5631 286.7193 15.32280255  5408
KUIPER-00223            
1 67783U 26030V   26070.74070751  .00052394  00000+0  15543-2 0  9990
2 67783  51.8831 209.5676 0012701  65.4990 294.7318 15.34231702  5409
KUIPER-00225            
1 67784U 26030W   26070.77655620  .00040118  00000+0  11294-2 0  9998
2 67784  51.8818 209.0604 0004845  35.9699 324.1613 15.36060911  5410
KUIPER-00226            
1 67785U 26030X   26070.78095936  .00043410  00000+0  14427-2 0  9997
2 67785  51.8825 209.8167 0017782  79.8703 280.4286 15.30617356  5402
KUIPER-00259            
1 67786U 26030Y   26070.59571762  .00053389  00000+0  15372-2 0  9999
2 67786  51.8812 210.0924 0008829  51.0662 309.1109 15.35202989  5389
KUIPER-00260            
1 67787U 26030Z   26070.57137929  .00056461  00000+0  15530-2 0  9991
2 67787  51.8799 209.9318 0001380  47.7864 312.3240 15.36640256  5295
KUIPER-00262            
1 67788U 26030AA  26070.69706823  .00028672  00000+0  79194-3 0  9990
2 67788  51.8814 209.2811 0000618  34.3300 325.7726 15.36829016  5408
KUIPER-00266            
1 67789U 26030AB  26070.78555111  .00023315  00000+0  77785-3 0  9996
2 67789  51.8812 209.8412 0023264  81.9114 278.4508 15.30706366  5401
KUIPER-00268            
1 67790U 26030AC  26070.83867950  .00044492  00000+0  12466-2 0  9994
2 67790  51.8858 208.7369 0004862  24.2947 335.8268 15.36161267  5423
KUIPER-00270            
1 67791U 26030AD  26070.79820905  .00043010  00000+0  12593-2 0  9995
2 67791  51.8796 209.1964 0010354  60.3934 299.8082 15.34759996  5413
KUIPER-00274            
1 67792U 26030AE  26070.77721833  .00013238  00000+0  45973-3 0  9992
2 67792  51.8832 209.7955 0018029  77.5662 282.7338 15.29936645  5402
KUIPER-00275            
1 67793U 26030AF  26070.79525270  .00025111  00000+0  73958-3 0  9999
2 67793  51.8835 209.1868 0009375  59.9130 300.2785 15.34855682  5411
KUIPER-00276            
1 67794U 26030AG  26070.78029683  .00034766  00000+0  11764-2 0  9998
2 67794  51.8832 209.8160 0019224  65.4025 294.8959 15.30115182  5400
KUIPER-00279            
1 67795U 26030AH  26070.78567469  .00040304  00000+0  11531-2 0  9995
2 67795  51.8810 209.1164 0006079  47.4868 312.6631 15.35547033  5419
CREW DRAGON 12          
1 67796U 26031A   26070.83651153  .00008338  00000+0  16153-3 0  9994
2 67796  51.6324  61.7417 0007973 182.2925 177.8028 15.48586968556569
