[{"OBJECT_NAME":"KUIPER-00218","OBJECT_ID":"2026-030S","EPOCH":"2026-03-11T18:55:29.309088","MEAN_MOTION":15.3531197,"ECCENTRICITY":0.0007005,"INCLINATION":51.8826,"RA_OF_ASC_NODE":209.1418,"ARG_OF_PERICENTER":56.5678,"MEAN_ANOMALY":303.5977,"EPHEMERIS_TYPE":0,"CLASSIFICATION_TYPE":"U","NORAD_CAT_ID":67780,"ELEMENT_SET_NO":999,"REV_AT_EPOCH":541,"BSTAR":0.0007291,"MEAN_MOTION_DOT":0.00025103,"MEAN_MOTION_DDOT":0},{"OBJECT_NAME":"KUIPER-00220","OBJECT_ID":"2026-030T","EPOCH":"2026-03-11T17:33:01.798848","MEAN_MOTION":15.34893065,"ECCENTRICITY":0.0008719,"INCLINATION":51.8795,"RA_OF_ASC_NODE":209.4978,"ARG_OF_PERICENTER":62.0532,"MEAN_ANOMALY":298.1335,"EPHEMERIS_TYPE":0,"CLASSIFICATION_TYPE":"U","NORAD_CAT_ID":67781,"ELEMENT_SET_NO":999,"REV_AT_EPOCH":540,"BSTAR":0.00077111,"MEAN_MOTION_DOT":0.00026229,"MEAN_MOTION_DDOT":0},{"OBJECT_NAME":"KUIPER-00222","OBJECT_ID":"2026-030U","EPOCH":"2026-03-11T18:19:28.840800","MEAN_MOTION":15.32280255,"ECCENTRICITY":0.0016746,"INCLINATION":51.8808,"RA_OF_ASC_NODE":209.7029,"ARG_OF_PERICENTER":73.5631,"MEAN_ANOMALY":286.7193,"EPHEMERIS_TYPE":0,"CLASSIFICATION_TYPE":"U","NORAD_CAT_ID":67782,"ELEMENT_SET_NO":999,"REV_AT_EPOCH":540,"BSTAR":0.0011185,"MEAN_MOTION_DOT":0.00035318,"MEAN_MOTION_DDOT":0},{"OBJECT_NAME":"KUIPER-00223","OBJECT_ID":"2026-030V","EPOCH":"2026-03-11T17:46:37.128864","MEAN_MOTION":15.34231702,"ECCENTRICITY":0.0012701,"INCLINATION":51.8831,"RA_OF_ASC_NODE":209.5676,"ARG_OF_PERICENTER":65.499,"MEAN_ANOMALY":294.7318,"EPHEMERIS_TYPE":0,"CLASSIFICATION_TYPE":"U","NORAD_CAT_ID":67783,"ELEMENT_SET_NO":999,"REV_AT_EPOCH":540,"BSTAR":0.0015543,"MEAN_MOTION_DOT":0.00052394,"MEAN_MOTION_DDOT":0},{"OBJECT_NAME":"KUIPER-00225","OBJECT_ID":"2026-030W","EPOCH":"2026-03-11T18:38:14.455680","MEAN_MOTION":15.36060911,"ECCENTRICITY":0.0004845,"INCLINATION":51.8818,"RA_OF_ASC_NODE":209.0604,"ARG_OF_PERICENTER":35.9699,"MEAN_ANOMALY":324.1613,"EPHEMERIS_TYPE":0,"CLASSIFICATION_TYPE":"U","NORAD_CAT_ID":67784,"ELEMENT_SET_NO":999,"REV_AT_EPOCH":541,"BSTAR":0.0011294,"MEAN_MOTION_DOT":0.00040118,"MEAN_MOTION_DDOT":0},{"OBJECT_NAME":"KUIPER-00226","OBJECT_ID":"2026-030X","EPOCH":"2026-03-11T18:44:34.888704","MEAN_MOTION":15.30617356,"ECCENTRICITY":0.0017782,"INCLINATION":51.8825,"RA_OF_ASC_NODE":209.8167,"ARG_OF_PERICENTER":79.8703,"MEAN_ANOMALY":280.4286,"EPHEMERIS_TYPE":0,"CLASSIFICATION_TYPE":"U","NORAD_CAT_ID":67785,"ELEMENT_SET_NO":999,"REV_AT_EPOCH":540,"BSTAR":0.0014427,"MEAN_MOTION_DOT":0.0004341,"MEAN_MOTION_DDOT":0},{"OBJECT_NAME":"KUIPER-00259","OBJECT_ID":"2026-030Y","EPOCH":"2026-03-11T14:17:50.002368","MEAN_MOTION":15.35202989,"ECCENTRICITY":0.0008829,"INCLINATION":51.8812,"RA_OF_ASC_NODE":210.0924,"ARG_OF_PERICENTER":51.0662,"MEAN_ANOMALY":309.1109,"EPHEMERIS_TYPE":0,"CLASSIFICATION_TYPE":"U","NORAD_CAT_ID":67786,"ELEMENT_SET_NO":999,"REV_AT_EPOCH":538,"BSTAR":0.0015372,"MEAN_MOTION_DOT":0.00053389,"MEAN_MOTION_DDOT":0},{"OBJECT_NAME":"KUIPER-00260","OBJECT_ID":"2026-030Z","EPOCH":"2026-03-11T13:42:47.170656","MEAN_MOTION":15.36640256,"ECCENTRICITY":0.000138,"INCLINATION":51.8799,"RA_OF_ASC_NODE":209.9318,"ARG_OF_PERICENTER":47.7864,"MEAN_ANOMALY":312.324,"EPHEMERIS_TYPE":0,"CLASSIFICATION_TYPE":"U","NORAD_CAT_ID":67787,"ELEMENT_SET_NO":999,"REV_AT_EPOCH":529,"BSTAR":0.001553,"MEAN_MOTION_DOT":0.00056461,"MEAN_MOTION_DDOT":0},{"OBJECT_NAME":"KUIPER-00262","OBJECT_ID":"2026-030AA","EPOCH":"2026-03-11T16:43:46.695072","MEAN_MOTION":15.36829016,"ECCENTRICITY":6.18e-5,"INCLINATION":51.8814,"RA_OF_ASC_NODE":209.2811,"ARG_OF_PERICENTER":34.33,"MEAN_ANOMALY":325.7726,"EPHEMERIS_TYPE":0,"CLASSIFICATION_TYPE":"U","NORAD_CAT_ID":67788,"ELEMENT_SET_NO":999,"REV_AT_EPOCH":540,"BSTAR":0.00079194,"MEAN_MOTION_DOT":0.00028672,"MEAN_MOTION_DDOT":0},{"OBJECT_NAME":"KUIPER-00266","OBJECT_ID":"2026-030AB","EPOCH":"2026-03-11T18:51:11.615904","MEAN_MOTION":15.30706366,"ECCENTRICITY":0.0023264,"INCLINATION":51.8812,"RA_OF_ASC_NODE":209.8412,"ARG_OF_PERICENTER":81.9114,"MEAN_ANOMALY":278.4508,"EPHEMERIS_TYPE":0,"CLASSIFICATION_TYPE":"U","NORAD_CAT_ID":67789,"ELEMENT_SET_NO":999,"REV_AT_EPOCH":540,"BSTAR":0.00077785,"MEAN_MOTION_DOT":0.00023315,"MEAN_MOTION_DDOT":0},{"OBJECT_NAME":"KUIPER-00268","OBJECT_ID":"2026-030AC","EPOCH":"2026-03-11T20:07:41.908800","MEAN_MOTION":15.36161267,"ECCENTRICITY":0.0004862,"INCLINATION":51.8858,"RA_OF_ASC_NODE":208.7369,"ARG_OF_PERICENTER":24.2947,"MEAN_ANOMALY":335.8268,"EPHEMERIS_TYPE":0,"CLASSIFICATION_TYPE":"U","NORAD_CAT_ID":67790,"ELEMENT_SET_NO":999,"REV_AT_EPOCH":542,"BSTAR":0.0012466,"MEAN_MOTION_DOT":0.00044492,"MEAN_MOTION_DDOT":0},{"OBJECT_NAME":"KUIPER-00270","OBJECT_ID":"2026-030AD","EPOCH":"2026-03-11T19:09:25.261920","MEAN_MOTION":15.34759996,"ECCENTRICITY":0.0010354,"INCLINATION":51.8796,"RA_OF_ASC_NODE":209.1964,"ARG_OF_PERICENTER":60.3934,"MEAN_ANOMALY":299.8082,"EPHEMERIS_TYPE":0,"CLASSIFICATION_TYPE":"U","NORAD_CAT_ID":67791,"ELEMENT_SET_NO":999,"REV_AT_EPOCH":541,"BSTAR":0.0012593,"MEAN_MOTION_DOT":0.0004301,"MEAN_MOTION_DDOT":0},{"OBJECT_NAME":"KUIPER-00274","OBJECT_ID":"2026-030AE","EPOCH":"2026-03-11T18:39:11.663712","MEAN_MOTION":15.29936645,"ECCENTRICITY":0.0018029,"INCLINATION":51.8832,"RA_OF_ASC_NODE":209.7955,"ARG_OF_PERICENTER":77.5662,"MEAN_ANOMALY":282.7338,"EPHEMERIS_TYPE":0,"CLASSIFICATION_TYPE":"U","NORAD_CAT_ID":67792,"ELEMENT_SET_NO":999,"REV_AT_EPOCH":540,"BSTAR":0.00045973,"MEAN_MOTION_DOT":0.00013238,"MEAN_MOTION_DDOT":0},{"OBJECT_NAME":"KUIPER-00275","OBJECT_ID":"2026-030AF","EPOCH":"2026-03-11T19:05:09.833280","MEAN_MOTION":15.34855682,"ECCENTRICITY":0.0009375,"INCLINATION":51.8835,"RA_OF_ASC_NODE":209.1868,"ARG_OF_PERICENTER":59.913,"MEAN_ANOMALY":300.2785,"EPHEMERIS_TYPE":0,"CLASSIFICATION_TYPE":"U","NORAD_CAT_ID":67793,"ELEMENT_SET_NO":999,"REV_AT_EPOCH":541,"BSTAR":0.00073958,"MEAN_MOTION_DOT":0.00025111,"MEAN_MOTION_DDOT":0},{"OBJECT_NAME":"KUIPER-00276","OBJECT_ID":"2026-030AG","EPOCH":"2026-03-11T18:43:37.646112","MEAN_MOTION":15.30115182,"ECCENTRICITY":0.0019224,"INCLINATION":51.8832,"RA_OF_ASC_NODE":209.816,"ARG_OF_PERICENTER":65.4025,"MEAN_ANOMALY":294.8959,"EPHEMERIS_TYPE":0,"CLASSIFICATION_TYPE":"U","NORAD_CAT_ID":67794,"ELEMENT_SET_NO":999,"REV_AT_EPOCH":540,"BSTAR":0.0011764,"MEAN_MOTION_DOT":0.00034766,"MEAN_MOTION_DDOT":0},{"OBJECT_NAME":"KUIPER-00279","OBJECT_ID":"2026-030AH","EPOCH":"2026-03-11T18:51:22.293216","MEAN_MOTION":15.35547033,"ECCENTRICITY":0.0006079,"INCLINATION":51.881,"RA_OF_ASC_NODE":209.1164,"ARG_OF_PERICENTER":47.4868,"MEAN_ANOMALY":312.6631,"EPHEMERIS_TYPE":0,"CLASSIFICATION_TYPE":"U","NORAD_CAT_ID":67795,"ELEMENT_SET_NO":999,"REV_AT_EPOCH":541,"BSTAR":0.0011531,"MEAN_MOTION_DOT":0.00040304,"MEAN_MOTION_DDOT":0},{"OBJECT_NAME":"CREW DRAGON 12","OBJECT_ID":"2026-031A","EPOCH":"2026-03-11T20:04:34.596192","MEAN_MOTION":15.48586968,"ECCENTRICITY":0.0007973,"INCLINATION":51.6324,"RA_OF_ASC_NODE":61.7417,"ARG_OF_PERICENTER":182.2925,"MEAN_ANOMALY":177.8028,"EPHEMERIS_TYPE":0,"CLASSIFICATION_TYPE":"U","NORAD_CAT_ID":67796,"ELEMENT_SET_NO":999,"REV_AT_EPOCH":55656,"BSTAR":0.00016153,"MEAN_MOTION_DOT":8.338e-5,"MEAN_MOTION_DDOT":0}]
